start=new Date('2023-04-14T00:00:00.000Z').valueOf();
sats=[{"ARG_OF_PERICENTER":"93.6957","EPHEMERIS_TYPE":"0","MEAN_MOTION_DDOT":"0.0000000000000","RCS_SIZE":"LARGE","TLE_LINE1":"1 47599U 21009BD  23103.27652522  .00018335  00000-0  12459-2 0  9999","MEAN_MOTION":"15.06420642","PERIAPSIS":"546.219","BSTAR":"0.00124590000000","MEAN_ELEMENT_THEORY":"SGP4","CENTER_NAME":"EARTH","COUNTRY_CODE":"US","ELEMENT_SET_NO":"999","RA_OF_ASC_NODE":"86.4833","OBJECT_TYPE":"PAYLOAD","FILE":"3886819","PERIOD":"95.591","MEAN_MOTION_DOT":"0.00018335","INCLINATION":"53.0537","OBJECT_NAME":"STARLINK-2004","NORAD_CAT_ID":"47599","EPOCH":"2023-04-13T06:38:11.779008","CLASSIFICATION_TYPE":"U","SITE":"AFETR","LAUNCH_DATE":"2021-02-04","APOAPSIS":"548.082","ECCENTRICITY":"0.00013450","REF_FRAME":"TEME","OBJECT_ID":"2021-009BD","TLE_LINE2":"2 47599  53.0537  86.4833 0001345  93.6957 266.4186 15.06420642121707","DECAY_DATE":null,"REV_AT_EPOCH":"12170","GP_ID":"230023153","SEMIMAJOR_AXIS":"6925.285","MEAN_ANOMALY":"266.4186","TIME_SYSTEM":"UTC"},{"COUNTRY_CODE":"US","CENTER_NAME":"EARTH","RA_OF_ASC_NODE":"86.0470","ELEMENT_SET_NO":"999","MEAN_ELEMENT_THEORY":"SGP4","BSTAR":"0.00039438000000","PERIOD":"95.591","INCLINATION":"53.0548","MEAN_MOTION_DOT":"0.00005599","FILE":"3886564","OBJECT_TYPE":"PAYLOAD","ARG_OF_PERICENTER":"88.2220","EPHEMERIS_TYPE":"0","MEAN_MOTION_DDOT":"0.0000000000000","PERIAPSIS":"546.035","RCS_SIZE":"LARGE","TLE_LINE1":"1 47600U 21009BE  23103.36867735  .00005599  00000-0  39438-3 0  9991","MEAN_MOTION":"15.06410981","ECCENTRICITY":"0.00016530","REF_FRAME":"TEME","APOAPSIS":"548.325","SEMIMAJOR_AXIS":"6925.315","REV_AT_EPOCH":"12111","GP_ID":"230012422","TIME_SYSTEM":"UTC","MEAN_ANOMALY":"271.8958","TLE_LINE2":"2 47600  53.0548  86.0470 0001653  88.2220 271.8958 15.06410981121117","OBJECT_ID":"2021-009BE","DECAY_DATE":null,"OBJECT_NAME":"STARLINK-2005","CLASSIFICATION_TYPE":"U","LAUNCH_DATE":"2021-02-04","SITE":"AFETR","NORAD_CAT_ID":"47600","EPOCH":"2023-04-13T08:50:53.723040"},{"OBJECT_NAME":"STARLINK-2006","EPOCH":"2023-04-13T05:07:58.520928","NORAD_CAT_ID":"47601","LAUNCH_DATE":"2021-02-04","SITE":"AFETR","CLASSIFICATION_TYPE":"U","APOAPSIS":"548.005","REF_FRAME":"TEME","ECCENTRICITY":"0.00011720","DECAY_DATE":null,"OBJECT_ID":"2021-009BF","TLE_LINE2":"2 47601  53.0544  86.7644 0001172 107.2704 252.8413 15.06406634121080","MEAN_ANOMALY":"252.8413","TIME_SYSTEM":"UTC","GP_ID":"230013171","REV_AT_EPOCH":"12108","SEMIMAJOR_AXIS":"6925.328","MEAN_MOTION_DDOT":"0.0000000000000","EPHEMERIS_TYPE":"0","ARG_OF_PERICENTER":"107.2704","MEAN_MOTION":"15.06406634","TLE_LINE1":"1 47601U 21009BF  23103.21387177  .00012583  00000-0  86196-3 0  9997","RCS_SIZE":"LARGE","PERIAPSIS":"546.382","BSTAR":"0.00086196000000","MEAN_ELEMENT_THEORY":"SGP4","ELEMENT_SET_NO":"999","RA_OF_ASC_NODE":"86.7644","CENTER_NAME":"EARTH","COUNTRY_CODE":"US","OBJECT_TYPE":"PAYLOAD","FILE":"3886564","MEAN_MOTION_DOT":"0.00012583","INCLINATION":"53.0544","PERIOD":"95.592"},{"MEAN_MOTION":"15.06407188","TLE_LINE1":"1 47602U 21009BG  23103.36776754  .00014610  00000-0  99746-3 0  9995","RCS_SIZE":"LARGE","PERIAPSIS":"546.154","MEAN_MOTION_DDOT":"0.0000000000000","ARG_OF_PERICENTER":"87.8006","EPHEMERIS_TYPE":"0","OBJECT_TYPE":"PAYLOAD","FILE":"3886564","MEAN_MOTION_DOT":"0.00014610","INCLINATION":"53.0538","PERIOD":"95.592","BSTAR":"0.00099746000000","MEAN_ELEMENT_THEORY":"SGP4","ELEMENT_SET_NO":"999","RA_OF_ASC_NODE":"96.0761","CENTER_NAME":"EARTH","COUNTRY_CODE":"US","EPOCH":"2023-04-13T08:49:35.115456","NORAD_CAT_ID":"47602","LAUNCH_DATE":"2021-02-04","SITE":"AFETR","CLASSIFICATION_TYPE":"U","OBJECT_NAME":"STARLINK-2007","DECAY_DATE":null,"OBJECT_ID":"2021-009BG","TLE_LINE2":"2 47602  53.0538  96.0761 0001498  87.8006 272.3154 15.06407188120967","MEAN_ANOMALY":"272.3154","TIME_SYSTEM":"UTC","REV_AT_EPOCH":"12096","GP_ID":"230011921","SEMIMAJOR_AXIS":"6925.327","APOAPSIS":"548.229","REF_FRAME":"TEME","ECCENTRICITY":"0.00014980"},{"TIME_SYSTEM":"UTC","MEAN_ANOMALY":"278.7709","SEMIMAJOR_AXIS":"6925.338","REV_AT_EPOCH":"12120","GP_ID":"230023657","DECAY_DATE":null,"TLE_LINE2":"2 47603  53.0527 124.2365 0001642  81.3466 278.7709 15.06403490121206","OBJECT_ID":"2021-009BH","REF_FRAME":"TEME","ECCENTRICITY":"0.00016420","APOAPSIS":"548.340","SITE":"AFETR","LAUNCH_DATE":"2021-02-04","CLASSIFICATION_TYPE":"U","EPOCH":"2023-04-13T18:40:02.077248","NORAD_CAT_ID":"47603","OBJECT_NAME":"STARLINK-2008","INCLINATION":"53.0527","MEAN_MOTION_DOT":"-0.00008816","PERIOD":"95.592","FILE":"3886820","OBJECT_TYPE":"PAYLOAD","RA_OF_ASC_NODE":"124.2365","ELEMENT_SET_NO":"999","COUNTRY_CODE":"US","CENTER_NAME":"EARTH","MEAN_ELEMENT_THEORY":"SGP4","BSTAR":"-0.00057364000000","PERIAPSIS":"546.066","RCS_SIZE":"LARGE","TLE_LINE1":"1 47603U 21009BH  23103.77780182 -.00008816  00000-0 -57364-3 0  9994","MEAN_MOTION":"15.06403490","MEAN_MOTION_DDOT":"0.0000000000000","ARG_OF_PERICENTER":"81.3466","EPHEMERIS_TYPE":"0"},{"TIME_SYSTEM":"UTC","MEAN_ANOMALY":"261.3899","SEMIMAJOR_AXIS":"6925.325","REV_AT_EPOCH":"12162","GP_ID":"230023161","DECAY_DATE":null,"TLE_LINE2":"2 47604  53.0525  94.5541 0000788  98.7179 261.3899 15.06407838121627","OBJECT_ID":"2021-009BJ","REF_FRAME":"TEME","ECCENTRICITY":"0.00007880","APOAPSIS":"547.735","LAUNCH_DATE":"2021-02-04","SITE":"AFETR","CLASSIFICATION_TYPE":"U","EPOCH":"2023-04-13T16:57:53.304480","NORAD_CAT_ID":"47604","OBJECT_NAME":"STARLINK-2021","INCLINATION":"53.0525","MEAN_MOTION_DOT":"0.00010371","PERIOD":"95.592","FILE":"3886820","OBJECT_TYPE":"PAYLOAD","RA_OF_ASC_NODE":"94.5541","ELEMENT_SET_NO":"999","COUNTRY_CODE":"US","CENTER_NAME":"EARTH","MEAN_ELEMENT_THEORY":"SGP4","BSTAR":"0.00071396000000","PERIAPSIS":"546.644","RCS_SIZE":"LARGE","TLE_LINE1":"1 47604U 21009BJ  23103.70686695  .00010371  00000-0  71396-3 0  9990","MEAN_MOTION":"15.06407838","MEAN_MOTION_DDOT":"0.0000000000000","ARG_OF_PERICENTER":"98.7179","EPHEMERIS_TYPE":"0"},{"OBJECT_TYPE":"PAYLOAD","FILE":"3886820","PERIOD":"95.592","MEAN_MOTION_DOT":"0.00003201","INCLINATION":"53.0537","BSTAR":"0.00023366000000","MEAN_ELEMENT_THEORY":"SGP4","CENTER_NAME":"EARTH","COUNTRY_CODE":"US","ELEMENT_SET_NO":"999","RA_OF_ASC_NODE":"94.5385","RCS_SIZE":"LARGE","TLE_LINE1":"1 47606U 21009BL  23103.71055356  .00003201  00000-0  23366-3 0  9995","MEAN_MOTION":"15.06396555","PERIAPSIS":"546.840","EPHEMERIS_TYPE":"0","ARG_OF_PERICENTER":"83.2943","MEAN_MOTION_DDOT":"0.0000000000000","OBJECT_ID":"2021-009BL","TLE_LINE2":"2 47606  53.0537  94.5385 0000555  83.2943 276.8109 15.06396555121626","DECAY_DATE":null,"GP_ID":"230023669","REV_AT_EPOCH":"12162","SEMIMAJOR_AXIS":"6925.359","MEAN_ANOMALY":"276.8109","TIME_SYSTEM":"UTC","APOAPSIS":"547.608","ECCENTRICITY":"0.00005550","REF_FRAME":"TEME","NORAD_CAT_ID":"47606","EPOCH":"2023-04-13T17:03:11.827584","CLASSIFICATION_TYPE":"U","SITE":"AFETR","LAUNCH_DATE":"2021-02-04","OBJECT_NAME":"STARLINK-2024"},{"MEAN_MOTION":"15.06515151","TLE_LINE1":"1 47607U 21009BM  23103.35652582  .00014726  00000-0  10023-2 0  9999","RCS_SIZE":"LARGE","PERIAPSIS":"545.930","MEAN_MOTION_DDOT":"0.0000000000000","ARG_OF_PERICENTER":"96.4059","EPHEMERIS_TYPE":"0","MEAN_MOTION_DOT":"0.00014726","INCLINATION":"53.0545","PERIOD":"95.585","OBJECT_TYPE":"PAYLOAD","FILE":"3886820","ELEMENT_SET_NO":"999","RA_OF_ASC_NODE":"96.1431","CENTER_NAME":"EARTH","COUNTRY_CODE":"US","BSTAR":"0.00100230000000","MEAN_ELEMENT_THEORY":"SGP4","LAUNCH_DATE":"2021-02-04","SITE":"AFETR","CLASSIFICATION_TYPE":"U","EPOCH":"2023-04-13T08:33:23.830848","NORAD_CAT_ID":"47607","OBJECT_NAME":"STARLINK-2025","MEAN_ANOMALY":"263.7083","TIME_SYSTEM":"UTC","REV_AT_EPOCH":"12156","GP_ID":"230023661","SEMIMAJOR_AXIS":"6924.996","DECAY_DATE":null,"TLE_LINE2":"2 47607  53.0545  96.1431 0001344  96.4059 263.7083 15.06515151121561","OBJECT_ID":"2021-009BM","REF_FRAME":"TEME","ECCENTRICITY":"0.00013440","APOAPSIS":"547.791"},{"MEAN_MOTION_DDOT":"0.0000000000000","EPHEMERIS_TYPE":"0","ARG_OF_PERICENTER":"113.4092","MEAN_MOTION":"15.06406127","TLE_LINE1":"1 47620U 21012A   23103.83771675  .00008381  00000-0  58074-3 0  9995","RCS_SIZE":"LARGE","PERIAPSIS":"546.229","BSTAR":"0.00058074000000","MEAN_ELEMENT_THEORY":"SGP4","ELEMENT_SET_NO":"999","RA_OF_ASC_NODE":"153.9699","CENTER_NAME":"EARTH","COUNTRY_CODE":"US","OBJECT_TYPE":"PAYLOAD","FILE":"3886962","MEAN_MOTION_DOT":"0.00008381","INCLINATION":"53.0519","PERIOD":"95.592","OBJECT_NAME":"STARLINK-1528","EPOCH":"2023-04-13T20:06:18.727200","NORAD_CAT_ID":"47620","SITE":"AFETR","LAUNCH_DATE":"2021-02-16","CLASSIFICATION_TYPE":"U","APOAPSIS":"548.161","REF_FRAME":"TEME","ECCENTRICITY":"0.00013950","DECAY_DATE":null,"TLE_LINE2":"2 47620  53.0519 153.9699 0001395 113.4092 246.7044 15.06406127119576","OBJECT_ID":"2021-012A","MEAN_ANOMALY":"246.7044","TIME_SYSTEM":"UTC","GP_ID":"230027421","REV_AT_EPOCH":"11957","SEMIMAJOR_AXIS":"6925.330"},{"CLASSIFICATION_TYPE":"U","SITE":"AFETR","LAUNCH_DATE":"2021-02-16","NORAD_CAT_ID":"47621","EPOCH":"2023-04-13T19:55:43.245696","OBJECT_NAME":"STARLINK-1609","SEMIMAJOR_AXIS":"6925.372","REV_AT_EPOCH":"11957","GP_ID":"230027419","TIME_SYSTEM":"UTC","MEAN_ANOMALY":"252.0095","OBJECT_ID":"2021-012B","TLE_LINE2":"2 47621  53.0544 154.0023 0001351 108.1041 252.0095 15.06392220119579","DECAY_DATE":null,"ECCENTRICITY":"0.00013510","REF_FRAME":"TEME","APOAPSIS":"548.173","PERIAPSIS":"546.302","MEAN_MOTION":"15.06392220","TLE_LINE1":"1 47621U 21012B   23103.83036164  .00016669  00000-0  11355-2 0  9991","RCS_SIZE":"LARGE","ARG_OF_PERICENTER":"108.1041","EPHEMERIS_TYPE":"0","MEAN_MOTION_DDOT":"0.0000000000000","PERIOD":"95.593","INCLINATION":"53.0544","MEAN_MOTION_DOT":"0.00016669","FILE":"3886962","OBJECT_TYPE":"PAYLOAD","COUNTRY_CODE":"US","CENTER_NAME":"EARTH","RA_OF_ASC_NODE":"154.0023","ELEMENT_SET_NO":"999","MEAN_ELEMENT_THEORY":"SGP4","BSTAR":"0.00113550000000"}];
